FLOCK 4Q-2              
1 58320U 23174BS  26064.85478400  .00029996  00000+0  64079-3 0  9992
2 58320  97.3868 151.1982 0008058 150.4532 209.7173 15.44770749129626
FLOCK 4Q-9              
1 58322U 23174BU  26064.74330634  .00028636  00000+0  61913-3 0  9992
2 58322  97.3905 151.1286 0008101 152.0904 208.0780 15.44424995129598
FLOCK 4Q-4              
1 58327U 23174BZ  26064.74389911  .00026578  00000+0  58244-3 0  9995
2 58327  97.3861 150.5071 0007514 169.2622 190.8788 15.44044280129572
FLOCK 4Q-13             
1 58328U 23174CA  26064.72038863  .00034333  00000+0  68621-3 0  9999
2 58328  97.4024 152.8770 0007527 164.2081 195.9404 15.46700908129652
FLOCK 4Q-21             
1 58329U 23174CB  26064.72006877  .00060786  00000+0  83983-3 0  9999
2 58329  97.3938 155.9013 0005782 169.4633 190.6744 15.56947704129872
FLOCK 4BE-18            
1 60480U 24149N   26064.70919968  .00024385  00000+0  65139-3 0  9993
2 60480  97.3781 147.6162 0003144 257.6020 102.4873 15.38084946 86384
FLOCK 4BE-7             
1 60481U 24149P   26064.65333186  .00018885  00000+0  53847-3 0  9991
2 60481  97.3811 147.1581 0002101 247.7630 112.3391 15.36109334 86335
FLOCK 4BE-26            
1 60484U 24149S   26064.73751091  .00101168  00000+0  22396-2 0  9993
2 60484  97.3770 147.5355 0005798 253.0413 107.0200 15.43399306 86382
FLOCK 4BE-36            
1 60486U 24149U   26064.74052119  .00024788  00000+0  64379-3 0  9991
2 60486  97.3791 148.1884 0002800 271.2842  88.8082 15.38950356 86421
FLOCK 4BE-25            
1 60487U 24149V   26064.73166169  .00018395  00000+0  52909-3 0  9995
2 60487  97.3847 147.3859 0001316 236.3898 123.7221 15.35843948 86341
FLOCK 4BE-31            
1 60488U 24149W   26064.71150647  .00027387  00000+0  69294-3 0  9994
2 60488  97.3846 148.7741 0001753 264.0349  96.0697 15.39733608 86434
FLOCK 4BE-20            
1 60489U 24149X   26064.70800779  .00017814  00000+0  52428-3 0  9997
2 60489  97.3753 146.5007 0002474 263.9759  96.1202 15.35124698 86327
FLOCK 4BE-23            
1 60490U 24149Y   26064.73897759  .00016924  00000+0  50399-3 0  9992
2 60490  97.3831 146.8510 0002093 275.2827  84.8177 15.34765528 86313
FLOCK 4BE-15            
1 60491U 24149Z   26064.74651038  .00084864  00000+0  21323-2 0  9994
2 60491  97.3768 147.8853 0002937 322.8423  37.2619 15.39653165 86414
FLOCK 4BE-17            
1 60492U 24149AA  26064.72220647  .00020267  00000+0  57085-3 0  9993
2 60492  97.3824 147.5037 0002143 253.1804 106.9205 15.36477664 86350
FLOCK 4BE-22            
1 60494U 24149AC  26064.72510035  .00022910  00000+0  62316-3 0  9998
2 60494  97.3783 147.5546 0002738 277.9396  82.1538 15.37538149 86385
FLOCK 4BE-34            
1 60495U 24149AD  26064.74784079  .00018738  00000+0  50587-3 0  9992
2 60495  97.3826 148.3224 0002291 280.5156  79.5831 15.37814435 86419
