[{"OBJECT_NAME":"FLOCK 4Q-2","OBJECT_ID":"2023-174BS","EPOCH":"2026-03-05T20:30:53.337600","MEAN_MOTION":15.44770749,"ECCENTRICITY":0.0008058,"INCLINATION":97.3868,"RA_OF_ASC_NODE":151.1982,"ARG_OF_PERICENTER":150.4532,"MEAN_ANOMALY":209.7173,"EPHEMERIS_TYPE":0,"CLASSIFICATION_TYPE":"U","NORAD_CAT_ID":58320,"ELEMENT_SET_NO":999,"REV_AT_EPOCH":12962,"BSTAR":0.00064079,"MEAN_MOTION_DOT":0.00029996,"MEAN_MOTION_DDOT":0},{"OBJECT_NAME":"FLOCK 4Q-9","OBJECT_ID":"2023-174BU","EPOCH":"2026-03-05T17:50:21.667776","MEAN_MOTION":15.44424995,"ECCENTRICITY":0.0008101,"INCLINATION":97.3905,"RA_OF_ASC_NODE":151.1286,"ARG_OF_PERICENTER":152.0904,"MEAN_ANOMALY":208.078,"EPHEMERIS_TYPE":0,"CLASSIFICATION_TYPE":"U","NORAD_CAT_ID":58322,"ELEMENT_SET_NO":999,"REV_AT_EPOCH":12959,"BSTAR":0.00061913,"MEAN_MOTION_DOT":0.00028636,"MEAN_MOTION_DDOT":0},{"OBJECT_NAME":"FLOCK 4Q-4","OBJECT_ID":"2023-174BZ","EPOCH":"2026-03-05T17:51:12.883104","MEAN_MOTION":15.4404428,"ECCENTRICITY":0.0007514,"INCLINATION":97.3861,"RA_OF_ASC_NODE":150.5071,"ARG_OF_PERICENTER":169.2622,"MEAN_ANOMALY":190.8788,"EPHEMERIS_TYPE":0,"CLASSIFICATION_TYPE":"U","NORAD_CAT_ID":58327,"ELEMENT_SET_NO":999,"REV_AT_EPOCH":12957,"BSTAR":0.00058244,"MEAN_MOTION_DOT":0.00026578,"MEAN_MOTION_DDOT":0},{"OBJECT_NAME":"FLOCK 4Q-13","OBJECT_ID":"2023-174CA","EPOCH":"2026-03-05T17:17:21.577632","MEAN_MOTION":15.46700908,"ECCENTRICITY":0.0007527,"INCLINATION":97.4024,"RA_OF_ASC_NODE":152.877,"ARG_OF_PERICENTER":164.2081,"MEAN_ANOMALY":195.9404,"EPHEMERIS_TYPE":0,"CLASSIFICATION_TYPE":"U","NORAD_CAT_ID":58328,"ELEMENT_SET_NO":999,"REV_AT_EPOCH":12965,"BSTAR":0.00068621,"MEAN_MOTION_DOT":0.00034333,"MEAN_MOTION_DDOT":0},{"OBJECT_NAME":"FLOCK 4Q-21","OBJECT_ID":"2023-174CB","EPOCH":"2026-03-05T17:16:53.941728","MEAN_MOTION":15.56947704,"ECCENTRICITY":0.0005782,"INCLINATION":97.3938,"RA_OF_ASC_NODE":155.9013,"ARG_OF_PERICENTER":169.4633,"MEAN_ANOMALY":190.6744,"EPHEMERIS_TYPE":0,"CLASSIFICATION_TYPE":"U","NORAD_CAT_ID":58329,"ELEMENT_SET_NO":999,"REV_AT_EPOCH":12987,"BSTAR":0.00083983,"MEAN_MOTION_DOT":0.00060786,"MEAN_MOTION_DDOT":0},{"OBJECT_NAME":"FLOCK 4BE-18","OBJECT_ID":"2024-149N","EPOCH":"2026-03-05T17:01:14.852352","MEAN_MOTION":15.38084946,"ECCENTRICITY":0.0003144,"INCLINATION":97.3781,"RA_OF_ASC_NODE":147.6162,"ARG_OF_PERICENTER":257.602,"MEAN_ANOMALY":102.4873,"EPHEMERIS_TYPE":0,"CLASSIFICATION_TYPE":"U","NORAD_CAT_ID":60480,"ELEMENT_SET_NO":999,"REV_AT_EPOCH":8638,"BSTAR":0.00065139,"MEAN_MOTION_DOT":0.00024385,"MEAN_MOTION_DDOT":0},{"OBJECT_NAME":"FLOCK 4BE-7","OBJECT_ID":"2024-149P","EPOCH":"2026-03-05T15:40:47.872704","MEAN_MOTION":15.36109334,"ECCENTRICITY":0.0002101,"INCLINATION":97.3811,"RA_OF_ASC_NODE":147.1581,"ARG_OF_PERICENTER":247.763,"MEAN_ANOMALY":112.3391,"EPHEMERIS_TYPE":0,"CLASSIFICATION_TYPE":"U","NORAD_CAT_ID":60481,"ELEMENT_SET_NO":999,"REV_AT_EPOCH":8633,"BSTAR":0.00053847,"MEAN_MOTION_DOT":0.00018885,"MEAN_MOTION_DDOT":0},{"OBJECT_NAME":"FLOCK 4BE-26","OBJECT_ID":"2024-149S","EPOCH":"2026-03-05T17:42:00.942624","MEAN_MOTION":15.43399306,"ECCENTRICITY":0.0005798,"INCLINATION":97.377,"RA_OF_ASC_NODE":147.5355,"ARG_OF_PERICENTER":253.0413,"MEAN_ANOMALY":107.02,"EPHEMERIS_TYPE":0,"CLASSIFICATION_TYPE":"U","NORAD_CAT_ID":60484,"ELEMENT_SET_NO":999,"REV_AT_EPOCH":8638,"BSTAR":0.0022396,"MEAN_MOTION_DOT":0.00101168,"MEAN_MOTION_DDOT":0},{"OBJECT_NAME":"FLOCK 4BE-36","OBJECT_ID":"2024-149U","EPOCH":"2026-03-05T17:46:21.030816","MEAN_MOTION":15.38950356,"ECCENTRICITY":0.00028,"INCLINATION":97.3791,"RA_OF_ASC_NODE":148.1884,"ARG_OF_PERICENTER":271.2842,"MEAN_ANOMALY":88.8082,"EPHEMERIS_TYPE":0,"CLASSIFICATION_TYPE":"U","NORAD_CAT_ID":60486,"ELEMENT_SET_NO":999,"REV_AT_EPOCH":8642,"BSTAR":0.00064379,"MEAN_MOTION_DOT":0.00024788,"MEAN_MOTION_DDOT":0},{"OBJECT_NAME":"FLOCK 4BE-25","OBJECT_ID":"2024-149V","EPOCH":"2026-03-05T17:33:35.570016","MEAN_MOTION":15.35843948,"ECCENTRICITY":0.0001316,"INCLINATION":97.3847,"RA_OF_ASC_NODE":147.3859,"ARG_OF_PERICENTER":236.3898,"MEAN_ANOMALY":123.7221,"EPHEMERIS_TYPE":0,"CLASSIFICATION_TYPE":"U","NORAD_CAT_ID":60487,"ELEMENT_SET_NO":999,"REV_AT_EPOCH":8634,"BSTAR":0.00052909,"MEAN_MOTION_DOT":0.00018395,"MEAN_MOTION_DDOT":0},{"OBJECT_NAME":"FLOCK 4BE-31","OBJECT_ID":"2024-149W","EPOCH":"2026-03-05T17:04:34.159008","MEAN_MOTION":15.39733608,"ECCENTRICITY":0.0001753,"INCLINATION":97.3846,"RA_OF_ASC_NODE":148.7741,"ARG_OF_PERICENTER":264.0349,"MEAN_ANOMALY":96.0697,"EPHEMERIS_TYPE":0,"CLASSIFICATION_TYPE":"U","NORAD_CAT_ID":60488,"ELEMENT_SET_NO":999,"REV_AT_EPOCH":8643,"BSTAR":0.00069294,"MEAN_MOTION_DOT":0.00027387,"MEAN_MOTION_DDOT":0},{"OBJECT_NAME":"FLOCK 4BE-20","OBJECT_ID":"2024-149X","EPOCH":"2026-03-05T16:59:31.873056","MEAN_MOTION":15.35124698,"ECCENTRICITY":0.0002474,"INCLINATION":97.3753,"RA_OF_ASC_NODE":146.5007,"ARG_OF_PERICENTER":263.9759,"MEAN_ANOMALY":96.1202,"EPHEMERIS_TYPE":0,"CLASSIFICATION_TYPE":"U","NORAD_CAT_ID":60489,"ELEMENT_SET_NO":999,"REV_AT_EPOCH":8632,"BSTAR":0.00052428,"MEAN_MOTION_DOT":0.00017814,"MEAN_MOTION_DDOT":0},{"OBJECT_NAME":"FLOCK 4BE-23","OBJECT_ID":"2024-149Y","EPOCH":"2026-03-05T17:44:07.663776","MEAN_MOTION":15.34765528,"ECCENTRICITY":0.0002093,"INCLINATION":97.3831,"RA_OF_ASC_NODE":146.851,"ARG_OF_PERICENTER":275.2827,"MEAN_ANOMALY":84.8177,"EPHEMERIS_TYPE":0,"CLASSIFICATION_TYPE":"U","NORAD_CAT_ID":60490,"ELEMENT_SET_NO":999,"REV_AT_EPOCH":8631,"BSTAR":0.00050399,"MEAN_MOTION_DOT":0.00016924,"MEAN_MOTION_DDOT":0},{"OBJECT_NAME":"FLOCK 4BE-15","OBJECT_ID":"2024-149Z","EPOCH":"2026-03-05T17:54:58.496832","MEAN_MOTION":15.39653165,"ECCENTRICITY":0.0002937,"INCLINATION":97.3768,"RA_OF_ASC_NODE":147.8853,"ARG_OF_PERICENTER":322.8423,"MEAN_ANOMALY":37.2619,"EPHEMERIS_TYPE":0,"CLASSIFICATION_TYPE":"U","NORAD_CAT_ID":60491,"ELEMENT_SET_NO":999,"REV_AT_EPOCH":8641,"BSTAR":0.0021323,"MEAN_MOTION_DOT":0.00084864,"MEAN_MOTION_DDOT":0},{"OBJECT_NAME":"FLOCK 4BE-17","OBJECT_ID":"2024-149AA","EPOCH":"2026-03-05T17:19:58.639008","MEAN_MOTION":15.36477664,"ECCENTRICITY":0.0002143,"INCLINATION":97.3824,"RA_OF_ASC_NODE":147.5037,"ARG_OF_PERICENTER":253.1804,"MEAN_ANOMALY":106.9205,"EPHEMERIS_TYPE":0,"CLASSIFICATION_TYPE":"U","NORAD_CAT_ID":60492,"ELEMENT_SET_NO":999,"REV_AT_EPOCH":8635,"BSTAR":0.00057085,"MEAN_MOTION_DOT":0.00020267,"MEAN_MOTION_DDOT":0},{"OBJECT_NAME":"FLOCK 4BE-22","OBJECT_ID":"2024-149AC","EPOCH":"2026-03-05T17:24:08.670240","MEAN_MOTION":15.37538149,"ECCENTRICITY":0.0002738,"INCLINATION":97.3783,"RA_OF_ASC_NODE":147.5546,"ARG_OF_PERICENTER":277.9396,"MEAN_ANOMALY":82.1538,"EPHEMERIS_TYPE":0,"CLASSIFICATION_TYPE":"U","NORAD_CAT_ID":60494,"ELEMENT_SET_NO":999,"REV_AT_EPOCH":8638,"BSTAR":0.00062316,"MEAN_MOTION_DOT":0.0002291,"MEAN_MOTION_DDOT":0},{"OBJECT_NAME":"FLOCK 4BE-34","OBJECT_ID":"2024-149AD","EPOCH":"2026-03-05T17:56:53.444256","MEAN_MOTION":15.37814435,"ECCENTRICITY":0.0002291,"INCLINATION":97.3826,"RA_OF_ASC_NODE":148.3224,"ARG_OF_PERICENTER":280.5156,"MEAN_ANOMALY":79.5831,"EPHEMERIS_TYPE":0,"CLASSIFICATION_TYPE":"U","NORAD_CAT_ID":60495,"ELEMENT_SET_NO":999,"REV_AT_EPOCH":8641,"BSTAR":0.00050587,"MEAN_MOTION_DOT":0.00018738,"MEAN_MOTION_DDOT":0}]
